OBJECT_NAME,OBJECT_ID,EPOCH,MEAN_MOTION,ECCENTRICITY,INCLINATION,RA_OF_ASC_NODE,ARG_OF_PERICENTER,MEAN_ANOMALY,EPHEMERIS_TYPE,CLASSIFICATION_TYPE,NORAD_CAT_ID,ELEMENT_SET_NO,REV_AT_EPOCH,BSTAR,MEAN_MOTION_DOT,MEAN_MOTION_DDOT
SL-16 R/B,1995-058B,2026-07-15T12:58:33.421440,14.15508949,.00146168,71.0210,271.8302,282.3394,77.6093,0,U,23705,999,58594,.12261226E-3,.192E-5,0
SL-16 R/B,1996-051B,2026-07-15T12:01:04.478592,14.12456593,.00178206,70.7646,264.7305,297.6936,62.2375,0,U,24298,999,53969,.11182918E-3,.157E-5,0
ORBVIEW 2 (SEASTAR),1997-037A,2026-07-15T17:39:42.140160,14.35566909,.0003074,98.8714,4.5499,59.7996,300.3492,0,U,24883,999,52684,.46682E-4,.88E-6,0
SL-16 R/B,1998-043G,2026-07-15T20:22:18.200064,14.26072774,.0009993,98.8379,151.2572,9.6080,350.5289,0,U,25400,999,45725,.17664E-4,-.3E-7,0
SL-16 R/B,1998-045B,2026-07-15T11:43:57.503136,14.16205258,.0008168,71.0109,272.8110,206.2295,153.8416,0,U,25407,999,44519,-.68746021E-4,-.184E-5,0
ISS (ZARYA),1998-067A,2026-07-15T18:23:37.536288,15.49019038,.0006719,51.6311,158.6576,300.0875,59.9447,0,U,25544,999,57618,.82095E-4,.4078E-4,0
CZ-4B R/B,1999-025C,2026-07-15T03:31:11.385984,14.18287708,.00366359,98.6472,237.2795,339.8742,87.7118,0,U,25732,999,40623,.28530562E-4,.16E-6,0
OKEAN-O,1999-039A,2026-07-15T17:36:51.837984,14.80497852,.0000882,97.9302,255.2018,88.0835,272.0478,0,U,25860,999,45333,.42876E-4,.276E-5,0
SL-16 R/B,1999-039B,2026-07-15T17:30:05.535072,14.81871150,.0014344,97.9824,255.5087,196.6553,163.4191,0,U,25861,999,45582,.36158E-4,.232E-5,0
DELTA 2 R/B,1999-041E,2026-07-15T06:36:48.499776,14.12085285,.05013878,51.7613,151.5757,4.9948,355.5728,0,U,25876,999,38105,.24210257E-3,.1267E-4,0
HELIOS 1B,1999-064A,2026-07-15T06:52:19.736256,14.88075271,.00019214,98.1585,102.2367,54.1371,306.0023,0,U,25977,999,70423,.77122232E-4,.65E-5,0
TERRA,1999-068A,2026-07-15T20:29:08.404800,14.61123975,.0003443,97.9441,245.2610,121.3032,327.0497,0,U,25994,999,41379,.44919E-4,.177E-5,0
SL-16 R/B,2000-006B,2026-07-15T09:30:20.058336,14.15837986,.00171945,71.0002,189.3105,339.7349,20.3089,0,U,26070,999,36663,-.41833191E-4,-.13E-5,0
TITAN 4B R/B,2000-047B,2026-07-15T20:51:18.886176,15.10334817,.0045816,67.9873,39.8304,258.0896,101.5114,0,U,26474,999,41226,.79626E-4,.1198E-4,0
ENVISAT,2002-009A,2026-07-15T21:31:31.960416,14.39070823,.0001325,98.3846,147.5774,83.1983,345.7951,0,U,27386,999,27761,.19313E-4,.17E-6,0
IDEFIX & ARIANE 42P R/B,2002-021B,2026-07-15T19:05:31.080768,14.31093901,.0011926,98.5942,133.9693,164.7365,195.4180,0,U,27422,999,26234,.49884E-4,.88E-6,0
AQUA,2002-022A,2026-07-14T12:07:11.762400,14.62196472,.0000927,98.4295,165.3370,111.8770,0.7592,0,U,27424,999,28726,.80863616E-4,.358E-5,0
CZ-4B R/B,2002-024C,2026-07-15T18:07:16.917888,14.14568324,.0050437,98.8686,249.3874,20.4126,89.1850,0,U,27432,999,24734,.25409E-4,.5E-7,0
MIDORI II (ADEOS-II),2002-056A,2026-07-15T11:43:31.761120,14.29363094,.00014654,98.7895,155.9916,40.7601,319.3689,0,U,27597,999,22855,.52223667E-4,.88E-6,0
H-2A R/B,2002-056E,2026-07-15T19:59:39.554016,14.33834089,.0070922,98.3328,152.4659,139.0468,285.3483,0,U,27601,999,23247,.54205E-4,.114E-5,0
CZ-4B R/B,2003-049C,2026-07-15T11:50:01.324896,14.55116196,.0047661,98.6910,196.4680,200.3297,159.6003,0,U,28059,999,20518,.40604309E-4,.126E-5,0
CZ-2C R/B,2004-012C,2026-07-15T19:30:39.438144,15.85338523,.0011107,97.7047,275.9435,188.8934,171.2140,0,U,28222,999,22442,.44647E-3,.107268E-2,0
SL-16 R/B,2004-021B,2026-07-15T19:11:26.685024,14.14616500,.0006287,71.0029,323.6400,224.6358,135.4259,0,U,28353,999,14095,.2738E-5,-.42E-6,0
CZ-4B R/B,2004-035C,2026-07-15T16:44:51.595296,15.30996440,.0029279,97.3354,229.4554,230.7581,129.1062,0,U,28415,999,19948,.14218E-3,.4234E-4,0
CZ-2C R/B,2004-046B,2026-07-15T07:24:09.012096,14.27033171,.0140134,98.1916,103.3279,137.0583,224.1641,0,U,28480,999,12670,.38377785E-4,.64E-6,0
ARIANE 5 R/B,2004-049H,2026-07-15T11:43:24.064608,14.85479048,.0082638,98.2741,9.8391,297.3267,61.9552,0,U,28499,999,16476,.29716322E-4,.206E-5,0
CZ-2D R/B,2005-024B,2026-07-15T01:14:42.976320,15.72739019,.00024014,97.3469,216.9360,193.0107,167.1096,0,U,28738,999,15971,.33465455E-3,.45064E-3,0
ALOS (DAICHI),2006-002A,2026-07-15T21:09:44.868384,14.70102533,.0000828,98.1338,152.3631,101.2889,258.8410,0,U,28931,999,9231,.84053E-4,.455E-5,0
H-2A R/B,2006-002B,2026-07-15T11:02:44.925216,15.18447770,.00508147,98.2591,354.8589,165.1390,195.1349,0,U,28932,999,11381,.23940244E-3,.5015E-4,0
RESURS-DK 1,2006-021A,2026-07-15T12:35:44.509344,15.13319759,.00071281,69.9307,266.1925,270.7395,89.2954,0,U,29228,999,10686,.57571113E-4,.919E-5,0
